NORAD_CAT_ID,OBJECT_NAME,OBJECT_TYPE,EPOCH,MEAN_MOTION,ECCENTRICITY,INCLINATION,RA_OF_ASC_NODE,ARG_OF_PERICENTER,MEAN_ANOMALY,BSTAR,MEAN_MOTION_DOT,MEAN_MOTION_DDOT,TLE_LINE0,TLE_LINE1,TLE_LINE2,SEMIMAJOR_AXIS,PERIOD,APOGEE,PERIGEE,DECAYED
52131.0,STARLINK-3711,PAYLOAD,2022-11-22 00:38:32,15.08844494,0.0001744,53.2196,72.5775,48.2559,311.8582,2.9329e-05,1.79e-06,0.0,0 STARLINK-3711,1 52131U 22029AV  22326.02676638  .00000179  00000-0  29329-4 0  9996,2 52131  53.2196  72.5775 0001744  48.2559 311.8582 15.08844494 39223,6917.8669999999975,95.437,540.938,538.525,0.0
52131.0,STARLINK-3711,PAYLOAD,2022-11-22 13:21:38,15.088390400000002,0.0001738,53.2199,70.1987,47.8922,312.2217,1.6950999999999994e-05,-1.8e-07,0.0,0 STARLINK-3711,1 52131U 22029AV  22326.55669024 -.00000018  00000-0  16951-4 0  9995,2 52131  53.2199  70.1987 0001738  47.8922 312.2217 15.08839040 39307,6917.8830000000025,95.438,540.951,538.5459999999998,0.0
52131.0,STARLINK-3711,PAYLOAD,2022-11-23 13:12:25,15.08837686,0.0001805,53.2198,65.7385,48.4431,311.6716,4.2666e-05,3.91e-06,0.0,0 STARLINK-3711,1 52131U 22029AV  22327.55029110  .00000391  00000-0  42666-4 0  9997,2 52131  53.2198  65.7385 0001805  48.4431 311.6716 15.08837686 39452,6917.887,95.438,541.001,538.504,0.0
52131.0,STARLINK-3711,PAYLOAD,2022-11-24 09:52:26,15.08835931,0.0001806,53.2206,61.8734,44.0209,316.0926,-3.4884e-05,-8.43e-06,0.0,0 STARLINK-3711,1 52131U 22029AV  22328.41141676 -.00000843  00000-0 -34884-4 0  9992,2 52131  53.2206  61.8734 0001806  44.0209 316.0926 15.08835931 39580,6917.893,95.438,541.007,538.508,0.0
52131.0,STARLINK-3711,PAYLOAD,2022-11-24 13:03:12,15.08838269,0.0001842,53.2201,61.2785,45.5393,314.575,-1.8533e-05,-5.83e-06,0.0,0 STARLINK-3711,1 52131U 22029AV  22328.54389488 -.00000583  00000-0 -18533-4 0  9995,2 52131  53.2201  61.2785 0001842  45.5393 314.5750 15.08838269 39603,6917.886,95.438,541.025,538.476,0.0
52131.0,STARLINK-3711,PAYLOAD,2022-11-25 12:53:59,15.08838206,0.0001924,53.2191,56.8176,42.5474,317.5667,1.1548e-05,-1.04e-06,0.0,0 STARLINK-3711,1 52131U 22029AV  22329.53749381 -.00000104  00000-0  11548-4 0  9994,2 52131  53.2191  56.8176 0001924  42.5474 317.5667 15.08838206 39750,6917.886,95.438,541.082,538.42,0.0
52131.0,STARLINK-3711,PAYLOAD,2022-11-26 12:44:46,15.0884188,0.0002001,53.2188,52.359,42.4661,317.6486,3.6935e-05,3e-06,0.0,0 STARLINK-3711,1 52131U 22029AV  22330.53109163  .00000300  00000-0  36935-4 0  9998,2 52131  53.2188  52.3590 0002001  42.4661 317.6486 15.08841880 39900,6917.875,95.437,541.124,538.355,0.0
52131.0,STARLINK-3711,PAYLOAD,2022-11-26 14:20:09,15.08842232,0.0002008,53.2187,52.0613,42.7282,317.3866,3.9671e-05,3.43e-06,0.0,0 STARLINK-3711,1 52131U 22029AV  22330.59733102  .00000343  00000-0  39671-4 0  9997,2 52131  53.2187  52.0613 0002008  42.7282 317.3866 15.08842232 39913,6917.874,95.437,541.128,538.349,0.0
52131.0,STARLINK-3711,PAYLOAD,2022-11-27 06:14:01,15.08832667,0.000186,53.2184,49.0865,42.3915,317.7221,-3.9799e-05,-9.21e-06,0.0,0 STARLINK-3711,1 52131U 22029AV  22331.25973711 -.00000921  00000-0 -39799-4 0  9998,2 52131  53.2184  49.0865 0001860  42.3915 317.7221 15.08832667 40012,6917.903,95.438,541.055,538.481,0.0
52131.0,STARLINK-3711,PAYLOAD,2022-11-27 14:10:57,15.08829156,0.0001919,53.218,47.5998,38.8542,321.2587,-5.9174e-05,-1.23e-05,0.0,0 STARLINK-3711,1 52131U 22029AV  22331.59094173 -.00001230  00000-0 -59174-4 0  9994,2 52131  53.2180  47.5998 0001919  38.8542 321.2587 15.08829156 40068,6917.9140000000025,95.438,541.106,538.451,0.0
52131.0,STARLINK-3711,PAYLOAD,2022-11-28 10:50:58,15.08832285,0.0001966,53.2204,43.7365,47.2849,312.8308,-4.113e-05,-9.43e-06,0.0,0 STARLINK-3711,1 52131U 22029AV  22332.45206279 -.00000943  00000-0 -41130-4 0  9995,2 52131  53.2204  43.7365 0001966  47.2849 312.8308 15.08832285 40195,6917.904,95.438,541.129,538.409,0.0
52131.0,STARLINK-3711,PAYLOAD,2022-11-28 21:58:40,15.08835615,0.0001981,53.2189,41.6534,40.2205,319.8934,-6.3008e-05,-1.291e-05,0.0,0 STARLINK-3711,1 52131U 22029AV  22332.91574305 -.00001291  00000-0 -63008-4 0  9999,2 52131  53.2189  41.6534 0001981  40.2205 319.8934 15.08835615 40268,6917.894,95.438,541.129,538.388,0.0
52131.0,STARLINK-3711,PAYLOAD,2022-11-29 12:17:07,15.08838805,0.0002019,53.2188,38.9775,38.582,321.5316,0.00012853,1.758e-05,0.0,0 STARLINK-3711,1 52131U 22029AV  22333.51189506  .00001758  00000-0  12853-3 0  9998,2 52131  53.2188  38.9775 0002019  38.5820 321.5316 15.08838805 40357,6917.884,95.438,541.146,538.352,0.0
52131.0,STARLINK-3711,PAYLOAD,2022-11-30 10:32:32,15.08828716,0.0001675999999999,53.2193,34.8153,56.0946,304.0205,-6.6179999999999975e-06,-3.93e-06,0.0,0 STARLINK-3711,1 52131U 22029AV  22334.43926903 -.00000393  00000-0 -66180-5 0  9990,2 52131  53.2193  34.8153 0001676  56.0946 304.0205 15.08828716 40498,6917.915,95.438,540.939,538.62,0.0
52131.0,STARLINK-3711,PAYLOAD,2022-11-30 13:43:19,15.08829261,0.0002174,53.2198,34.2181,41.7897,318.3261,3.3983e-05,2.52e-06,0.0,0 STARLINK-3711,1 52131U 22029AV  22334.57174910  .00000252  00000-0  33983-4 0  9994,2 52131  53.2198  34.2181 0002174  41.7897 318.3261 15.08829261 40517,6917.913000000001,95.438,541.2819999999998,538.274,0.0
52131.0,STARLINK-3711,PAYLOAD,2022-11-30 21:40:14,15.08842902,0.0001398,53.2192,32.7322,61.1608,298.9524,-5.8498e-05,-1.219e-05,0.0,0 STARLINK-3711,1 52131U 22029AV  22334.90294260 -.00001219  00000-0 -58498-4 0  9996,2 52131  53.2192  32.7322 0001398  61.1608 298.9524 15.08842902 40561,6917.871999999999,95.437,540.7040000000002,538.769,0.0
52131.0,STARLINK-3711,PAYLOAD,2022-12-01 13:34:05,15.08848956,0.0002188,53.2181,29.7615,34.2301,325.8832,8.807799999999999e-06,-1.48e-06,0.0,0 STARLINK-3711,1 52131U 22029AV  22335.56533688 -.00000148  00000-0  88078-5 0  9996,2 52131  53.2181  29.7615 0002188  34.2301 325.8832 15.08848956 40667,6917.853,95.437,541.232,538.2040000000002,0.0
52131.0,STARLINK-3711,PAYLOAD,2022-12-02 10:14:06,15.08840258,0.0002179,53.2173,25.8944,41.5654,318.5503,5.0049e-05,5.08e-06,0.0,0 STARLINK-3711,1 52131U 22029AV  22336.42645882  .00000508  00000-0  50049-4 0  9997,2 52131  53.2173  25.8944 0002179  41.5654 318.5503 15.08840258 40797,6917.88,95.438,541.252,538.237,0.0
52131.0,STARLINK-3711,PAYLOAD,2022-12-02 11:49:29,15.08836179,0.0002156,53.2182,25.5965,40.7266,319.3887,1.5614e-05,-4e-07,0.0,0 STARLINK-3711,1 52131U 22029AV  22336.49270249 -.00000040  00000-0  15614-4 0  9996,2 52131  53.2182  25.5965 0002156  40.7266 319.3887 15.08836179 40805,6917.892,95.438,541.249,538.266,0.0
52131.0,STARLINK-3711,PAYLOAD,2022-12-02 13:24:52,15.08834808,0.0002176,53.2182,25.2997,40.1002,320.0151,-4.6182e-06,-3.62e-06,0.0,0 STARLINK-3711,1 52131U 22029AV  22336.55894419 -.00000362  00000-0 -46182-5 0  9997,2 52131  53.2182  25.2997 0002176  40.1002 320.0151 15.08834808 40812,6917.896,95.438,541.2669999999998,538.256,0.0
52131.0,STARLINK-3711,PAYLOAD,2022-12-03 13:15:40,15.08831926,0.0002179,53.2184,20.8387,37.0517,323.0625,-0.00018933,-3.3e-05,0.0,0 STARLINK-3711,1 52131U 22029AV  22337.55255418 -.00003300  00000-0 -18933-3 0  9994,2 52131  53.2184  20.8387 0002179  37.0517 323.0625 15.08831926 40960,6917.905,95.438,541.2769999999998,538.263,0.0
52131.0,STARLINK-3711,PAYLOAD,2022-12-03 19:37:13,15.08833709,0.0002112,53.2175,19.6501,35.462,324.6512,-0.00015045,-2.682e-05,0.0,0 STARLINK-3711,1 52131U 22029AV  22337.81751227 -.00002682  00000-0 -15045-3 0  9995,2 52131  53.2175  19.6501 0002112  35.4620 324.6512 15.08833709 41007,6917.9,95.438,541.226,538.304,0.0
52131.0,STARLINK-3711,PAYLOAD,2022-12-04 08:20:17,15.08832666,0.0002202,53.2187,17.2701,38.7046,321.4103,4.8247e-05,4.8e-06,0.0,0 STARLINK-3711,1 52131U 22029AV  22338.34742769  .00000480  00000-0  48247-4 0  9998,2 52131  53.2187  17.2701 0002202  38.7046 321.4103 15.08832666 41084,6917.903,95.438,541.2909999999998,538.244,0.0
52131.0,STARLINK-3711,PAYLOAD,2022-12-04 13:06:26,15.0883581,0.0002317,53.219,16.3776,39.4677,320.6484,8.4786e-05,1.061e-05,0.0,0 STARLINK-3711,1 52131U 22029AV  22338.54614521  .00001061  00000-0  84786-4 0  9998,2 52131  53.2190  16.3776 0002317  39.4677 320.6484 15.08835810 41116,6917.893,95.438,541.361,538.155,0.0
52131.0,STARLINK-3711,PAYLOAD,2022-12-04 19:27:59,15.08839308,0.0002325,53.2191,15.1887,39.1107,321.0053,8.7584e-05,1.106e-05,0.0,0 STARLINK-3711,1 52131U 22029AV  22338.81110328  .00001106  00000-0  87584-4 0  9993,2 52131  53.2191  15.1887 0002325  39.1107 321.0053 15.08839308 41158,6917.8830000000025,95.438,541.356,538.139,0.0
52131.0,STARLINK-3711,PAYLOAD,2022-12-05 06:35:41,15.08840217,0.0002132,53.2199,13.1078,40.3001,319.8149,5.4799e-05,5.84e-06,0.0,0 STARLINK-3711,1 52131U 22029AV  22339.27478454  .00000584  00000-0  54799-4 0  9992,2 52131  53.2199  13.1078 0002132  40.3001 319.8149 15.08840217 41229,6917.88,95.438,541.22,538.27,0.0
52131.0,STARLINK-3711,PAYLOAD,2022-12-05 12:57:13,15.08843531,0.0002202,53.2194,11.9184,43.0082,317.1082,6.4826e-05,7.44e-06,0.0,0 STARLINK-3711,1 52131U 22029AV  22339.53974188  .00000744  00000-0  64826-4 0  9996,2 52131  53.2194  11.9184 0002202  43.0082 317.1082 15.08843531 41268,6917.87,95.437,541.258,538.211,0.0
52131.0,STARLINK-3711,PAYLOAD,2022-12-05 19:18:46,15.08840658,0.0002404,53.2187,10.7285,41.5235,318.594,-2.0472e-06,-3.21e-06,0.0,0 STARLINK-3711,1 52131U 22029AV  22339.80470615 -.00000321  00000-0 -20472-5 0  9995,2 52131  53.2187  10.7285 0002404  41.5235 318.5940 15.08840658 41306,6917.878000000002,95.438,541.406,538.08,0.0
52131.0,STARLINK-3711,PAYLOAD,2022-12-06 08:01:51,15.08844296,0.0001955,53.2189,8.3487,44.608,315.5069,2.0086e-05,3.2e-07,0.0,0 STARLINK-3711,1 52131U 22029AV  22340.33462050  .00000032  00000-0  20086-4 0  9996,2 52131  53.2189   8.3487 0001955  44.6080 315.5069 15.08844296 41386,6917.8669999999975,95.437,541.085,538.38,0.0
